[{"OBJECT_NAME":"STARLINK-36700","OBJECT_ID":"2026-022Q","EPOCH":"2026-03-09T15:28:52.353696","MEAN_MOTION":15.75231603,"ECCENTRICITY":0.0002606,"INCLINATION":97.2848,"RA_OF_ASC_NODE":102.6469,"ARG_OF_PERICENTER":47.074,"MEAN_ANOMALY":313.0743,"EPHEMERIS_TYPE":0,"CLASSIFICATION_TYPE":"U","NORAD_CAT_ID":67662,"ELEMENT_SET_NO":999,"REV_AT_EPOCH":554,"BSTAR":0.00058718,"MEAN_MOTION_DOT":0.00088534,"MEAN_MOTION_DDOT":0},{"OBJECT_NAME":"CZ-4B R\/B","OBJECT_ID":"2025-314B","EPOCH":"2026-03-09T17:50:42.473760","MEAN_MOTION":15.91792327,"ECCENTRICITY":0.00849963,"INCLINATION":97.3538,"RA_OF_ASC_NODE":150.3267,"ARG_OF_PERICENTER":114.2763,"MEAN_ANOMALY":246.7419,"EPHEMERIS_TYPE":0,"CLASSIFICATION_TYPE":"U","NORAD_CAT_ID":67301,"ELEMENT_SET_NO":999,"REV_AT_EPOCH":1092,"BSTAR":0.00075319096,"MEAN_MOTION_DOT":0.00343879,"MEAN_MOTION_DDOT":4.660623e-5}]
